[{"OBJECT_NAME":"STARLINK-31658","OBJECT_ID":"2024-073C","EPOCH":"2026-03-08T23:49:40.679616","MEAN_MOTION":15.27577693,"ECCENTRICITY":8.65e-5,"INCLINATION":43.0011,"RA_OF_ASC_NODE":281.6769,"ARG_OF_PERICENTER":234.2074,"MEAN_ANOMALY":125.8698,"EPHEMERIS_TYPE":0,"CLASSIFICATION_TYPE":"U","NORAD_CAT_ID":59513,"ELEMENT_SET_NO":999,"REV_AT_EPOCH":10652,"BSTAR":-3.7783113e-5,"MEAN_MOTION_DOT":-1.301e-5,"MEAN_MOTION_DDOT":0},{"OBJECT_NAME":"TRANSPORTER-1 OBJECT Z","OBJECT_ID":"2021-006Z","EPOCH":"2026-03-09T22:55:57.522432","MEAN_MOTION":15.30965056,"ECCENTRICITY":0.00100878,"INCLINATION":97.2377,"RA_OF_ASC_NODE":113.4736,"ARG_OF_PERICENTER":179.6869,"MEAN_ANOMALY":180.438,"EPHEMERIS_TYPE":0,"CLASSIFICATION_TYPE":"U","NORAD_CAT_ID":47436,"ELEMENT_SET_NO":999,"REV_AT_EPOCH":28420,"BSTAR":0.00024088983,"MEAN_MOTION_DOT":7.143e-5,"MEAN_MOTION_DDOT":0}]
